
# Worst residual: 2.87 km
# MJD 57548.000000 (2016 Jun  9  0:00)
1999-066A = XMM-Newton = NORAD 25989 = S509474 = S509433
1 25989U 99066A   16161.49921083  .00000000  00000-0  00000-0 0    07
2 25989 067.6033 023.4199 8226835 095.0025 132.8552 00.50132458    07

# Worst residual: 5.94 km
# MJD 57549.000000 (2016 Jun 10  0:00)
1999-066A = XMM-Newton = NORAD 25989 = S509474 = S509433
1 25989U 99066A   16162.49921083  .00000000  00000-0  00000-0 0    08
2 25989 067.6068 023.3879 8227480 095.0033 313.3478 00.50136418    08

# Worst residual: 2.63 km
# MJD 57550.000000 (2016 Jun 11  0:00)
1999-066A = XMM-Newton = NORAD 25989 = S509474 = S509433
1 25989U 99066A   16163.49921083  .00000000  00000-0  00000-0 0    09
2 25989 067.6093 023.3264 8227020 095.0136 133.8631 00.50133931    01

# Worst residual: 5.26 km
# MJD 57551.000000 (2016 Jun 12  0:00)
1999-066A = XMM-Newton = NORAD 25989 = S509474 = S509433
1 25989U 99066A   16164.49921083  .00000000  00000-0  00000-0 0    00
2 25989 067.6137 023.2866 8227286 095.0159 314.3627 00.50137738    06

# Worst residual: 2.91 km
# MJD 57552.000000 (2016 Jun 13  0:00)
1999-066A = XMM-Newton = NORAD 25989 = S509474 = S509433
1 25989U 99066A   16165.49921083  .00000000  00000-0  00000-0 0    01
2 25989 067.6165 023.2268 8226967 095.0240 134.8836 00.50136974    07

# Worst residual: 5.68 km
# MJD 57553.000000 (2016 Jun 14  0:00)
1999-066A = XMM-Newton = NORAD 25989 = S509474 = S509433
1 25989U 99066A   16166.49921083  .00000000  00000-0  00000-0 0    02
2 25989 067.6210 023.1843 8226487 095.0241 315.3985 00.50136015    01

# Worst residual: 3.38 km
# MJD 57554.000000 (2016 Jun 15  0:00)
1999-066A = XMM-Newton = NORAD 25989 = S509474 = S509433
1 25989U 99066A   16167.49921083  .00000000  00000-0  00000-0 0    03
2 25989 067.6241 023.1259 8226412 095.0288 135.9207 00.50139864    03

# Worst residual: 5.74 km
# MJD 57555.000000 (2016 Jun 16  0:00)
1999-066A = XMM-Newton = NORAD 25989 = S509474 = S509433
1 25989U 99066A   16168.49921083  .00000000  00000-0  00000-0 0    04
2 25989 067.6276 023.0888 8225574 095.0225 316.4601 00.50133012    00

# Worst residual: 2.97 km
# MJD 57556.000000 (2016 Jun 17  0:00)
1999-066A = XMM-Newton = NORAD 25989 = S509474 = S509433
1 25989U 99066A   16169.49921083  .00000000  00000-0  00000-0 0    05
2 25989 067.6293 023.0279 8225753 095.0253 136.9782 00.50140515    04

# Worst residual: 5.29 km
# MJD 57557.000000 (2016 Jun 18  0:00)
1999-066A = XMM-Newton = NORAD 25989 = S509474 = S509433
1 25989U 99066A   16170.49921083  .00000000  00000-0  00000-0 0    07
2 25989 067.6319 022.9952 8225492 095.0149 317.5402 00.50131141    04

# Worst residual: 2.10 km
# MJD 57558.000000 (2016 Jun 19  0:00)
1999-066A = XMM-Newton = NORAD 25989 = S509474 = S509433
1 25989U 99066A   16171.49921083  .00000000  00000-0  00000-0 0    08
2 25989 067.6309 022.9273 8225581 095.0209 138.0535 00.50138620    07

# Worst residual: 6.95 km
# MJD 57559.000000 (2016 Jun 20  0:00)
1999-066A = XMM-Newton = NORAD 25989 = S509474 = S509433
1 25989U 99066A   16172.49921083  .00000000  00000-0  00000-0 0    09
2 25989 067.6352 022.8853 8226354 095.0156 318.6192 00.50131459    06

# Worst residual: 2.24 km
# MJD 57560.000000 (2016 Jun 21  0:00)
1999-066A = XMM-Newton = NORAD 25989 = S509474 = S509433
1 25989U 99066A   16173.49921083  .00000000  00000-0  00000-0 0    00
2 25989 067.6334 022.8140 8225872 095.0263 139.1375 00.50137101    07

# Worst residual: 6.79 km
# MJD 57561.000000 (2016 Jun 22  0:00)
1999-066A = XMM-Newton = NORAD 25989 = S509474 = S509433
1 25989U 99066A   16174.49921083  .00000000  00000-0  00000-0 0    01
2 25989 067.6420 022.7534 8226787 095.0311 319.6872 00.50133161    08

# Worst residual: 3.28 km
# MJD 57562.000000 (2016 Jun 23  0:00)
1999-066A = XMM-Newton = NORAD 25989 = S509474 = S509433
1 25989U 99066A   16175.49921083  .00000000  00000-0  00000-0 0    02
2 25989 067.6432 022.6894 8225980 095.0394 140.2195 00.50138562    00

# Worst residual: 6.74 km
# MJD 57563.000000 (2016 Jun 24  0:00)
1999-066A = XMM-Newton = NORAD 25989 = S509474 = S509433
1 25989U 99066A   16176.49921083  .00000000  00000-0  00000-0 0    03
2 25989 067.6539 022.6254 8226026 095.0444 320.7586 00.50135878    02

# Worst residual: 4.02 km
# MJD 57564.000000 (2016 Jun 25  0:00)
1999-066A = XMM-Newton = NORAD 25989 = S509474 = S509433
1 25989U 99066A   16177.49921083  .00000000  00000-0  00000-0 0    04
2 25989 067.6585 022.5708 8225798 095.0447 141.2948 00.50140256    08

# Worst residual: 7.04 km
# MJD 57565.000000 (2016 Jun 26  0:00)
1999-066A = XMM-Newton = NORAD 25989 = S509474 = S509433
1 25989U 99066A   16178.49921083  .00000000  00000-0  00000-0 0    05
2 25989 067.6668 022.5206 8225738 095.0422 321.8386 00.50140319    02

# Worst residual: 3.13 km
# MJD 57566.000000 (2016 Jun 27  0:00)
1999-066A = XMM-Newton = NORAD 25989 = S509474 = S509433
1 25989U 99066A   16179.49921083  .00000000  00000-0  00000-0 0    06
2 25989 067.6712 022.4663 8226382 095.0399 142.3621 00.50139331    07

# Worst residual: 6.64 km
# MJD 57567.000000 (2016 Jun 28  0:00)
1999-066A = XMM-Newton = NORAD 25989 = S509474 = S509433
1 25989U 99066A   16180.49921083  .00000000  00000-0  00000-0 0    08
2 25989 067.6772 022.4211 8227205 095.0389 322.9037 00.50143774    09

# Worst residual: 3.20 km
# MJD 57568.000000 (2016 Jun 29  0:00)
1999-066A = XMM-Newton = NORAD 25989 = S509474 = S509433
1 25989U 99066A   16181.49921083  .00000000  00000-0  00000-0 0    09
2 25989 067.6794 022.3619 8228080 095.0413 143.4125 00.50137390    05

# Worst residual: 6.53 km
# MJD 57569.000000 (2016 Jun 30  0:00)
1999-066A = XMM-Newton = NORAD 25989 = S509474 = S509433
1 25989U 99066A   16182.49921083  .00000000  00000-0  00000-0 0    00
2 25989 067.6856 022.3119 8229319 095.0482 323.9386 00.50142114    05

# Worst residual: 5.23 km
# MJD 57570.000000 (2016 Jul  1  0:00)
1999-066A = XMM-Newton = NORAD 25989 = S509474 = S509433
1 25989U 99066A   16183.49921083  .00000000  00000-0  00000-0 0    01
2 25989 067.6868 022.2510 8229705 095.0561 144.4420 00.50136027    00
